{
  "type": "FeatureCollection",
  "features": [
    {
      "type": "Feature",
      "properties": {
        "norad_id": 38797,
        "name": "FENGYUN 1C DEB",
        "group": "fengyun-1c-debris",
        "lat": 24.15686029641258,
        "lon": -113.81040165910717,
        "alt_km": 1206.3944256299783,
        "timestamp": "2025-12-23T22:42:33.275096+00:00",
        "meta_object_name": "FENGYUN 1C DEB",
        "meta_object_id": "1999-025EUM",
        "meta_epoch": "2025-12-21T10:37:18.137856",
        "meta_mean_motion": 13.61613976,
        "meta_eccentricity": 0.02449187,
        "meta_inclination": 99.4843,
        "meta_ra_of_asc_node": 248.0555,
        "meta_arg_of_pericenter": 199.0138,
        "meta_mean_anomaly": 160.1737,
        "meta_ephemeris_type": 0,
        "meta_classification_type": "U",
        "meta_norad_cat_id": 38797,
        "meta_element_set_no": 999,
        "meta_rev_at_epoch": 59401,
        "meta_bstar": 0.00019998345,
        "meta_mean_motion_dot": 1.44e-06,
        "meta_mean_motion_ddot": 0,
        "tle_line1": "1 38797U 99025EUM 25355.44257104  .00000144  00000+0  19998-3 0  9993",
        "tle_line2": "2 38797  99.4843 248.0555 0244918 199.0138 160.1737 13.61613976594018"
      },
      "geometry": {
        "type": "Point",
        "coordinates": [
          -113.81040165910717,
          24.15686029641258
        ]
      }
    },
    {
      "type": "Feature",
      "properties": {
        "norad_id": 38799,
        "name": "FENGYUN 1C DEB",
        "group": "fengyun-1c-debris",
        "lat": -53.85716937441137,
        "lon": 85.03844102220371,
        "alt_km": 622.4032209271545,
        "timestamp": "2025-12-23T22:42:33.275109+00:00",
        "meta_object_name": "FENGYUN 1C DEB",
        "meta_object_id": "1999-025EUP",
        "meta_epoch": "2025-12-21T11:17:05.189280",
        "meta_mean_motion": 14.488039,
        "meta_eccentricity": 0.01632768,
        "meta_inclination": 98.405,
        "meta_ra_of_asc_node": 70.8929,
        "meta_arg_of_pericenter": 323.6155,
        "meta_mean_anomaly": 35.4026,
        "meta_ephemeris_type": 0,
        "meta_classification_type": "U",
        "meta_norad_cat_id": 38799,
        "meta_element_set_no": 999,
        "meta_rev_at_epoch": 64165,
        "meta_bstar": 0.00066879172,
        "meta_mean_motion_dot": 2.939e-05,
        "meta_mean_motion_ddot": 0,
        "tle_line1": "1 38799U 99025EUP 25355.47019895  .00002939  00000+0  66879-3 0  9995",
        "tle_line2": "2 38799  98.4050  70.8929 0163276 323.6155  35.4026 14.48803900641658"
      },
      "geometry": {
        "type": "Point",
        "coordinates": [
          85.03844102220371,
          -53.85716937441137
        ]
      }
    },
    {
      "type": "Feature",
      "properties": {
        "norad_id": 38801,
        "name": "FENGYUN 1C DEB",
        "group": "fengyun-1c-debris",
        "lat": -21.95780252264496,
        "lon": 51.48245464364851,
        "alt_km": 577.51754423884,
        "timestamp": "2025-12-23T22:42:33.275119+00:00",
        "meta_object_name": "FENGYUN 1C DEB",
        "meta_object_id": "1999-025EUR",
        "meta_epoch": "2025-12-14T23:38:20.156064",
        "meta_mean_motion": 14.2482334,
        "meta_eccentricity": 0.03468339,
        "meta_inclination": 98.3742,
        "meta_ra_of_asc_node": 39.5088,
        "meta_arg_of_pericenter": 345.3815,
        "meta_mean_anomaly": 131.5103,
        "meta_ephemeris_type": 0,
        "meta_classification_type": "U",
        "meta_norad_cat_id": 38801,
        "meta_element_set_no": 999,
        "meta_rev_at_epoch": 64392,
        "meta_bstar": 0.00040763026,
        "meta_mean_motion_dot": 1.732e-05,
        "meta_mean_motion_ddot": 0,
        "tle_line1": "1 38801U 99025EUR 25348.98495551  .00001732  00000+0  40763-3 0  9998",
        "tle_line2": "2 38801  98.3742  39.5088 0346833 345.3815 131.5103 14.24823340643923"
      },
      "geometry": {
        "type": "Point",
        "coordinates": [
          51.48245464364851,
          -21.95780252264496
        ]
      }
    },
    {
      "type": "Feature",
      "properties": {
        "norad_id": 38803,
        "name": "FENGYUN 1C DEB",
        "group": "fengyun-1c-debris",
        "lat": 16.34782537627335,
        "lon": -175.06784671147176,
        "alt_km": 855.9516075127985,
        "timestamp": "2025-12-23T22:42:33.275129+00:00",
        "meta_object_name": "FENGYUN 1C DEB",
        "meta_object_id": "1999-025EUT",
        "meta_epoch": "2025-12-11T23:13:14.145312",
        "meta_mean_motion": 14.23657255,
        "meta_eccentricity": 0.00641548,
        "meta_inclination": 99.1415,
        "meta_ra_of_asc_node": 349.7806,
        "meta_arg_of_pericenter": 38.4896,
        "meta_mean_anomaly": 322.0831,
        "meta_ephemeris_type": 0,
        "meta_classification_type": "U",
        "meta_norad_cat_id": 38803,
        "meta_element_set_no": 999,
        "meta_rev_at_epoch": 60201,
        "meta_bstar": 0.003287403,
        "meta_mean_motion_dot": 7.619e-05,
        "meta_mean_motion_ddot": 0,
        "tle_line1": "1 38803U 99025EUT 25345.96752483  .00007619  00000+0  32874-2 0  9998",
        "tle_line2": "2 38803  99.1415 349.7806 0064154  38.4896 322.0831 14.23657255602016"
      },
      "geometry": {
        "type": "Point",
        "coordinates": [
          -175.06784671147176,
          16.34782537627335
        ]
      }
    },
    {
      "type": "Feature",
      "properties": {
        "norad_id": 38809,
        "name": "FENGYUN 1C DEB",
        "group": "fengyun-1c-debris",
        "lat": -66.90154305372432,
        "lon": 167.01202193318224,
        "alt_km": 727.6183811775154,
        "timestamp": "2025-12-23T22:42:33.275140+00:00",
        "meta_object_name": "FENGYUN 1C DEB",
        "meta_object_id": "1999-025EUZ",
        "meta_epoch": "2025-12-22T06:34:39.984960",
        "meta_mean_motion": 14.18198113,
        "meta_eccentricity": 0.02226326,
        "meta_inclination": 98.5886,
        "meta_ra_of_asc_node": 6.1456,
        "meta_arg_of_pericenter": 300.4151,
        "meta_mean_anomaly": 57.5191,
        "meta_ephemeris_type": 0,
        "meta_classification_type": "U",
        "meta_norad_cat_id": 38809,
        "meta_element_set_no": 999,
        "meta_rev_at_epoch": 69341,
        "meta_bstar": 0.00052283688,
        "meta_mean_motion_dot": 1.326e-05,
        "meta_mean_motion_ddot": 0,
        "tle_line1": "1 38809U 99025EUZ 25356.27407390  .00001326  00000+0  52284-3 0  9991",
        "tle_line2": "2 38809  98.5886   6.1456 0222632 300.4151  57.5191 14.18198113693415"
      },
      "geometry": {
        "type": "Point",
        "coordinates": [
          167.01202193318224,
          -66.90154305372432
        ]
      }
    },
    {
      "type": "Feature",
      "properties": {
        "norad_id": 38813,
        "name": "FENGYUN 1C DEB",
        "group": "fengyun-1c-debris",
        "lat": 71.50065229592123,
        "lon": -33.75121256582247,
        "alt_km": 813.0835850159765,
        "timestamp": "2025-12-23T22:42:33.275150+00:00",
        "meta_object_name": "FENGYUN 1C DEB",
        "meta_object_id": "1999-025EVD",
        "meta_epoch": "2025-12-20T06:26:16.727424",
        "meta_mean_motion": 14.20180408,
        "meta_eccentricity": 0.00066213,
        "meta_inclination": 99.3456,
        "meta_ra_of_asc_node": 351.851,
        "meta_arg_of_pericenter": 94.7535,
        "meta_mean_anomaly": 265.4396,
        "meta_ephemeris_type": 0,
        "meta_classification_type": "U",
        "meta_norad_cat_id": 38813,
        "meta_element_set_no": 999,
        "meta_rev_at_epoch": 48357,
        "meta_bstar": 0.00039057682,
        "meta_mean_motion_dot": 7.85e-06,
        "meta_mean_motion_ddot": 0,
        "tle_line1": "1 38813U 99025EVD 25354.26824916  .00000785  00000+0  39058-3 0  9992",
        "tle_line2": "2 38813  99.3456 351.8510 0006621  94.7535 265.4396 14.20180408483572"
      },
      "geometry": {
        "type": "Point",
        "coordinates": [
          -33.75121256582247,
          71.50065229592123
        ]
      }
    },
    {
      "type": "Feature",
      "properties": {
        "norad_id": 38817,
        "name": "FENGYUN 1C DEB",
        "group": "fengyun-1c-debris",
        "lat": 71.73053050758386,
        "lon": -160.3695716267823,
        "alt_km": 919.6293663925899,
        "timestamp": "2025-12-23T22:42:33.275160+00:00",
        "meta_object_name": "FENGYUN 1C DEB",
        "meta_object_id": "1999-025EVH",
        "meta_epoch": "2025-12-20T21:51:15.749280",
        "meta_mean_motion": 13.5772142,
        "meta_eccentricity": 0.0291698,
        "meta_inclination": 98.6004,
        "meta_ra_of_asc_node": 224.2534,
        "meta_arg_of_pericenter": 23.1716,
        "meta_mean_anomaly": 338.2277,
        "meta_ephemeris_type": 0,
        "meta_classification_type": "U",
        "meta_norad_cat_id": 38817,
        "meta_element_set_no": 999,
        "meta_rev_at_epoch": 65945,
        "meta_bstar": 0.0017279,
        "meta_mean_motion_dot": 1.603e-05,
        "meta_mean_motion_ddot": 0,
        "tle_line1": "1 38817U 99025EVH 25354.91059895  .00001603  00000+0  17279-2 0  9994",
        "tle_line2": "2 38817  98.6004 224.2534 0291698  23.1716 338.2277 13.57721420659456"
      },
      "geometry": {
        "type": "Point",
        "coordinates": [
          -160.3695716267823,
          71.73053050758386
        ]
      }
    }
  ]
}